APRIZESAT 2             
1 28366U 04025A   22335.06621077  .00000101  00000+0  45470-4 0  9995
2 28366  98.1385 195.4837 0107100 193.2873 166.5490 14.36876565965743
SAUDICOMSAT 1           
1 28369U 04025D   22335.37638419  .00000339  00000+0  93162-4 0  9994
2 28369  98.4649 298.2644 0033998  25.7490 334.5389 14.52924729976084
SAUDICOMSAT 2           
1 28370U 04025E   22335.17218537  .00000218  00000+0  70623-4 0  9992
2 28370  98.5567 297.4928 0056784 215.8791 143.8582 14.47815562972750
APRIZESAT 1             
1 28372U 04025G   22335.13113258  .00000195  00000+0  61900-4 0  9996
2 28372  98.5179 297.5037 0047109 127.4450 233.1043 14.49898028974256
NANOSAT-1               
1 28493U 04049B   22335.28640497  .00000668  00000+0  10876-3 0  9992
2 28493  98.1189  76.2578 0005636 114.7934 245.3861 14.74257021964447
SAUDICOMSAT 7           
1 31119U 07012C   22335.25978273  .00000501  00000+0  10678-3 0  9993
2 31119  98.2050 279.7127 0058337 289.4922  69.9983 14.62277556833089
SAUDICOMSAT 6           
1 31121U 07012E   22335.30253317  .00000493  00000+0  11108-3 0  9996
2 31121  98.2442 275.0111 0076881  34.5097 326.1060 14.59033676831277
SAUDICOMSAT 5           
1 31124U 07012H   22335.33451363  .00000446  00000+0  93150-4 0  9999
2 31124  98.1744 281.2212 0050003 232.6034 127.0611 14.64020151834009
SAUDICOMSAT 3           
1 31125U 07012J   22335.11647617  .00000450  00000+0  90335-4 0  9992
2 31125  98.1405 282.3046 0042752 176.8988 183.2489 14.65868147834924
SAUDICOMSAT 4           
1 31127U 07012L   22335.29744262  .00000553  00000+0  11999-3 0  9999
2 31127  98.2273 278.1729 0067146 339.6176  20.2347 14.60777315832239
APRIZESAT 4             
1 35684U 09041D   22335.32475159  .00000436  00000+0  64526-4 0  9990
2 35684  98.3035 354.6523 0046737 174.8134 185.3570 14.79850135719749
APRIZESAT 3             
1 35686U 09041F   22335.46212853  .00000779  00000+0  87037-4 0  9999
2 35686  98.1032  65.8282 0071612   1.5821 358.5608 14.88271620723442
AISSAT 1                
1 36797U 10035C   22335.50163861  .00001241  00000+0  14321-3 0  9997
2 36797  98.2343 165.6813 0010700 353.7224   6.3855 14.87557208671274
S-NET D                 
1 43186U 18014G   22335.19867787  .00001953  00000+0  16751-3 0  9994
2 43186  97.6452 237.6816 0011602  98.0489 262.2050 14.98601833263885
S-NET B                 
1 43187U 18014H   22335.53292223  .00002024  00000+0  17344-3 0  9999
2 43187  97.6449 237.9525 0011661  96.9687 263.2862 14.98600403263934
S-NET A                 
1 43188U 18014J   22335.53322493  .00002044  00000+0  17511-3 0  9991
2 43188  97.6454 238.0263 0011667  97.0349 263.2201 14.98600809263932
S-NET C                 
1 43189U 18014K   22335.20043903  .00001934  00000+0  16598-3 0  9993
2 43189  97.6454 237.6127 0011694  97.8844 262.3707 14.98594603262434
SALSAT                  
1 46495U 20068K   22335.32483652  .00003110  00000+0  22071-3 0  9991
2 46495  97.7476 276.8954 0017779  73.0693 287.2481 15.05378378119280
